{
  "type": "FeatureCollection",
  "features": [
    {
      "type": "Feature",
      "properties": {
        "nfc_id": "kitchen",
        "name": "Кухня",
        "global_id": "0mK5UvW79C_B9SQ2kAbiej",
        "center_x": 3.4777080284652637,
        "center_y": 6.468567115740107
      },
      "geometry": {
        "type": "Polygon",
        "coordinates": [
          [
            [
              3.8244159817695618,
              4.07908296585083
            ],
            [
              1.2350000143051147,
              5.574082851409912
            ],
            [
              3.13100004196167,
              8.858051300048828
            ],
            [
              5.720416069030762,
              7.3630512952804565
            ],
            [
              3.8244159817695618,
              4.07908296585083
            ]
          ]
        ]
      }
    },
    {
      "type": "Feature",
      "properties": {
        "nfc_id": "living",
        "name": "Жилая комната",
        "global_id": "0mK5UvW79C_B9SQ2kAbiee",
        "center_x": 6.262146308442416,
        "center_y": 4.341355753046031
      },
      "geometry": {
        "type": "Polygon",
        "coordinates": [
          [
            [
              6.7345945835113525,
              1.3596601486206055
            ],
            [
              3.4436980187892914,
              3.259660243988037
            ],
            [
              5.789698123931885,
              7.323051333427429
            ],
            [
              9.080594539642334,
              5.423051357269287
            ],
            [
              6.7345945835113525,
              1.3596601486206055
            ]
          ]
        ]
      }
    },
    {
      "type": "Feature",
      "properties": {
        "nfc_id": "bathroom",
        "name": "Санузел",
        "global_id": "0mK5UvW79C_B9SQ2kAbied",
        "center_x": 1.4678555648757854,
        "center_y": 3.9674007096523036
      },
      "geometry": {
        "type": "Polygon",
        "coordinates": [
          [
            [
              1.7407110929489136,
              2.4300003051757812
            ],
            [
              0.0,
              3.435000419616699
            ],
            [
              1.1950000524520874,
              5.504801034927368
            ],
            [
              2.9357111006975174,
              4.499801158905029
            ],
            [
              1.7407110929489136,
              2.4300003051757812
            ]
          ]
        ]
      }
    },
    {
      "type": "Feature",
      "properties": {
        "nfc_id": "hall",
        "name": "Прихожая",
        "global_id": "0mK5UvW79C_B9SQ2kAbieY",
        "center_x": 3.350201874802021,
        "center_y": 2.5855889095033873
      },
      "geometry": {
        "type": "Polygon",
        "coordinates": [
          [
            [
              1.8099931478500366,
              2.390000343322754
            ],
            [
              3.0049931406974792,
              4.459800720214844
            ],
            [
              3.7844160199165344,
              4.009800910949707
            ],
            [
              3.3294159919023514,
              3.2217178344726562
            ],
            [
              4.091518342494965,
              2.7817177772521973
            ],
            [
              4.096518337726593,
              2.7903780937194824
            ],
            [
              4.962543725967407,
              2.2903780937194824
            ],
            [
              4.217543721199036,
              1.0
            ],
            [
              1.8099931478500366,
              2.390000343322754
            ]
          ]
        ]
      }
    },
    {
      "type": "Feature",
      "properties": {
        "nfc_id": "wardrobe",
        "name": "Гардероб",
        "global_id": "0mK5UvW79C_B9SQ2kAbieX",
        "center_x": 5.49071017795813,
        "center_y": 1.1251890685149408
      },
      "geometry": {
        "type": "Polygon",
        "coordinates": [
          [
            [
              4.286825776100159,
              0.9600000381469727
            ],
            [
              5.03182578086853,
              2.250378131866455
            ],
            [
              6.694594621658325,
              1.2903780937194824
            ],
            [
              5.949594497680664,
              0.0
            ],
            [
              4.286825776100159,
              0.9600000381469727
            ]
          ]
        ]
      }
    }
  ]
}